NORAD_CAT_ID,OBJECT_NAME,OBJECT_TYPE,EPOCH,MEAN_MOTION,ECCENTRICITY,INCLINATION,RA_OF_ASC_NODE,ARG_OF_PERICENTER,MEAN_ANOMALY,BSTAR,MEAN_MOTION_DOT,MEAN_MOTION_DDOT,TLE_LINE0,TLE_LINE1,TLE_LINE2,SEMIMAJOR_AXIS,PERIOD,APOGEE,PERIGEE,DECAYED
49738.0,STARLINK-3143,PAYLOAD,2023-11-09 10:15:49,15.08860016,0.0002181,53.2194,10.5864,81.1812,278.9427,9.8655e-05,1.283e-05,0.0,0 STARLINK-3143,1 49738U 21115Q   23313.42765412  .00001283  00000-0  98655-4 0  9995,2 49738  53.2194  10.5864 0002181  81.1812 278.9427 15.08860016108131,6917.819,95.436,541.193,538.175,0.0
49738.0,STARLINK-3143,PAYLOAD,2023-11-09 13:26:35,15.08864139,0.0002143,53.2203,9.9824,94.8554,265.2683,0.00014594,2.037e-05,0.0,0 STARLINK-3143,1 49738U 21115Q   23313.56012824  .00002037  00000-0  14594-3 0  9999,2 49738  53.2203   9.9824 0002143  94.8554 265.2683 15.08864139107044,6917.807,95.436,541.154,538.189,0.0
49738.0,STARLINK-3143,PAYLOAD,2023-11-09 21:23:31,15.08850745,0.0002087,53.2197,8.5047,74.5841,285.5382,-7.9162e-05,-1.548e-05,0.0,0 STARLINK-3143,1 49738U 21115Q   23313.89133161 -.00001548  00000-0 -79162-4 0  9994,2 49738  53.2197   8.5047 0002087  74.5841 285.5382 15.08850745107093,6917.848,95.437,541.156,538.269,0.0
49738.0,STARLINK-3143,PAYLOAD,2023-11-10 10:06:36,15.08849499,0.0001739,53.2193,6.1223,97.0847,263.0343,-7.9155e-05,-1.548e-05,0.0,0 STARLINK-3143,1 49738U 21115Q   23314.42125031 -.00001548  00000-0 -79155-4 0  9993,2 49738  53.2193   6.1223 0001739  97.0847 263.0343 15.08849499107179,6917.851,95.437,540.919,538.513,0.0
49738.0,STARLINK-3143,PAYLOAD,2023-11-11 03:35:50,15.08839767,0.0001581,53.2188,2.8514,98.826,261.2911,3.7766e-06,-2.28e-06,0.0,0 STARLINK-3143,1 49738U 21115Q   23315.14989305 -.00000228  00000-0  37766-5 0  9991,2 49738  53.2188   2.8514 0001581  98.8260 261.2911 15.08839767108395,6917.881,95.438,540.84,538.652,0.0
49738.0,STARLINK-3143,PAYLOAD,2023-11-11 09:57:23,15.08846838,0.0001643,53.2187,1.6621,99.8997,260.218,-5.4735e-05,-1.159e-05,0.0,0 STARLINK-3143,1 49738U 21115Q   23315.41484984 -.00001159  00000-0 -54735-4 0  9993,2 49738  53.2187   1.6621 0001643  99.8997 260.2180 15.08846838107323,6917.859,95.437,540.861,538.588,0.0
49738.0,STARLINK-3143,PAYLOAD,2023-11-12 09:48:10,15.08843063,0.0001481,53.2197,357.2049,97.5328,262.5833,8.939e-05,1.135e-05,0.0,0 STARLINK-3143,1 49738U 21115Q   23316.40845236  .00001135  00000-0  89390-4 0  9991,2 49738  53.2197 357.2049 0001481  97.5328 262.5833 15.08843063108587,6917.871,95.437,540.761,538.711,0.0
49738.0,STARLINK-3143,PAYLOAD,2023-11-12 19:20:29,15.08843699,0.0001457,53.2188,355.4198,93.8091,266.3068,6.0963e-05,6.82e-06,0.0,0 STARLINK-3143,1 49738U 21115Q   23316.80589183  .00000682  00000-0  60963-4 0  9992,2 49738  53.2188 355.4198 0001457  93.8091 266.3068 15.08843699107532,6917.869,95.437,540.742,538.726,0.0
49738.0,STARLINK-3143,PAYLOAD,2023-11-13 09:38:56,15.08850429,0.0001538,53.219,352.7436,101.5771,258.5394,0.00022063,3.226e-05,0.0,0 STARLINK-3143,1 49738U 21115Q   23317.40204596  .00003226  00000-0  22063-3 0  9996,2 49738  53.2190 352.7436 0001538 101.5771 258.5394 15.08850429107626,6917.849,95.437,540.777,538.65,0.0
49738.0,STARLINK-3143,PAYLOAD,2023-11-14 09:29:44,15.08837083,0.0001649,53.2194,348.2828,95.9081,264.2099,4.9974e-05,5.07e-06,0.0,0 STARLINK-3143,1 49738U 21115Q   23318.39565761  .00000507  00000-0  49974-4 0  9999,2 49738  53.2194 348.2828 0001649  95.9081 264.2099 15.08837083108884,6917.889,95.438,540.895,538.614,0.0
49738.0,STARLINK-3143,PAYLOAD,2023-11-15 09:20:31,15.08846015,0.0001552,53.2189,343.822,91.7866,268.3304,2.589e-05,1.24e-06,0.0,0 STARLINK-3143,1 49738U 21115Q   23319.38925304  .00000124  00000-0  25890-4 0  9998,2 49738  53.2189 343.8220 0001552  91.7866 268.3304 15.08846015109030,6917.862,95.437,540.801,538.653,0.0
49738.0,STARLINK-3143,PAYLOAD,2023-11-15 18:52:50,15.08846494,0.0001577,53.2189,342.0376,86.4994,273.6179,-1.9748e-05,-6.02e-06,0.0,0 STARLINK-3143,1 49738U 21115Q   23319.78669312 -.00000602  00000-0 -19748-4 0  9994,2 49738  53.2189 342.0376 0001577  86.4994 273.6179 15.08846494107985,6917.861,95.437,540.816,538.635,0.0
49738.0,STARLINK-3143,PAYLOAD,2023-11-16 01:14:23,15.088373,0.0001653,53.2187,340.849,83.6481,276.4699,0.00010113,1.322e-05,0.0,0 STARLINK-3143,1 49738U 21115Q   23320.05165813  .00001322  00000-0  10113-3 0  9997,2 49738  53.2187 340.8490 0001653  83.6481 276.4699 15.08837300109134,6917.889,95.438,540.897,538.61,0.0
49738.0,STARLINK-3143,PAYLOAD,2023-11-16 09:11:19,15.08826326,0.0001691,53.2191,339.3621,86.4242,273.6943,0.00022934,3.362e-05,0.0,0 STARLINK-3143,1 49738U 21115Q   23320.38286217  .00003362  00000-0  22934-3 0  9995,2 49738  53.2191 339.3621 0001691  86.4242 273.6943 15.08826326108075,6917.922,95.438,540.957,538.617,0.0
49738.0,STARLINK-3143,PAYLOAD,2023-11-16 20:19:00,15.08839665,0.0001594,53.2186,337.2802,84.6978,275.4196,0.00010098,1.319e-05,0.0,0 STARLINK-3143,1 49738U 21115Q   23320.84653755  .00001319  00000-0  10098-3 0  9999,2 49738  53.2186 337.2802 0001594  84.6978 275.4196 15.08839665108143,6917.881,95.438,540.849,538.644,0.0
49738.0,STARLINK-3143,PAYLOAD,2023-11-17 10:37:28,15.08846278,0.000157,53.2179,334.6024,87.0592,273.058,9.3027e-05,1.193e-05,0.0,0 STARLINK-3143,1 49738U 21115Q   23321.44269353  .00001193  00000-0  93027-4 0  9997,2 49738  53.2179 334.6024 0001570  87.0592 273.0580 15.08846278109347,6917.861,95.437,540.812,538.64,0.0
49738.0,STARLINK-3143,PAYLOAD,2023-11-17 18:34:24,15.08837563,0.0001568,53.2182,333.1133,97.7969,262.3202,3.4284e-05,2.58e-06,0.0,0 STARLINK-3143,1 49738U 21115Q   23321.77389950  .00000258  00000-0  34284-4 0  9990,2 49738  53.2182 333.1133 0001568  97.7969 262.3202 15.08837563109393,6917.888,95.438,540.838,538.668,0.0
49738.0,STARLINK-3143,PAYLOAD,2023-11-18 07:17:30,15.08837562,0.0001487,53.2182,330.7379,87.8874,272.2288,8.9181e-05,1.132e-05,0.0,0 STARLINK-3143,1 49738U 21115Q   23322.30382002  .00001132  00000-0  89181-4 0  9999,2 49738  53.2182 330.7379 0001487  87.8874 272.2288 15.08837562108362,6917.888,95.438,540.782,538.724,0.0
49738.0,STARLINK-3143,PAYLOAD,2023-11-19 03:57:30,15.08845607,0.0001536,53.2176,326.8699,94.5134,265.6033,8.9574e-05,1.138e-05,0.0,0 STARLINK-3143,1 49738U 21115Q   23323.16493287  .00001138  00000-0  89574-4 0  9994,2 49738  53.2176 326.8699 0001536  94.5134 265.6033 15.08845607109606,6917.863,95.437,540.791,538.666,0.0
49738.0,STARLINK-3143,PAYLOAD,2023-11-19 07:08:16,15.08847783,0.0001508,53.2179,326.2761,91.7874,268.3291,0.00012927,1.77e-05,0.0,0 STARLINK-3143,1 49738U 21115Q   23323.29741122  .00001770  00000-0  12927-3 0  9991,2 49738  53.2179 326.2761 0001508  91.7874 268.3291 15.08847783108514,6917.857,95.437,540.765,538.678,0.0
49738.0,STARLINK-3143,PAYLOAD,2023-11-20 03:48:17,15.08838248,0.0001567,53.2178,322.4113,89.4008,270.7164,4.7376e-05,4.66e-06,0.0,0 STARLINK-3143,1 49738U 21115Q   23324.15853816  .00000466  00000-0  47376-4 0  9999,2 49738  53.2178 322.4113 0001567  89.4008 270.7164 15.08838248109759,6917.886,95.438,540.835,538.667,0.0
49738.0,STARLINK-3143,PAYLOAD,2023-11-20 08:34:26,15.08844742,0.0001512,53.2186,321.5173,87.3419,272.7747,7.8563e-05,9.63e-06,0.0,0 STARLINK-3143,1 49738U 21115Q   23324.35725397  .00000963  00000-0  78563-4 0  9997,2 49738  53.2186 321.5173 0001512  87.3419 272.7747 15.08844742108672,6917.866,95.437,540.777,538.685,0.0
49738.0,STARLINK-3143,PAYLOAD,2023-11-20 16:31:22,15.08839996,0.0001622,53.2188,320.0333,92.205,267.9128,2.8045e-05,1.58e-06,0.0,0 STARLINK-3143,1 49738U 21115Q   23324.68845815  .00000158  00000-0  28045-4 0  9997,2 49738  53.2188 320.0333 0001622  92.2050 267.9128 15.08839996108724,6917.88,95.438,540.867,538.623,0.0
49738.0,STARLINK-3143,PAYLOAD,2023-11-21 10:00:37,15.08841765,0.0001701,53.2186,316.7621,89.9909,270.1278,-4.9996e-06,-3.68e-06,0.0,0 STARLINK-3143,1 49738U 21115Q   23325.41709840 -.00000368  00000-0 -49996-5 0  9990,2 49738  53.2186 316.7621 0001701  89.9909 270.1278 15.08841765109942,6917.875,95.437,540.917,538.563,0.0
49738.0,STARLINK-3143,PAYLOAD,2023-11-22 08:16:00,15.0885309,0.0001646,53.2189,312.5986,92.8604,267.2577,0.00016049,2.268e-05,0.0,0 STARLINK-3143,1 49738U 21115Q   23326.34444970  .00002268  00000-0  16049-3 0  9993,2 49738  53.2189 312.5986 0001646  92.8604 267.2577 15.08853090110086,6917.84,95.437,540.844,538.567,0.0
49738.0,STARLINK-3143,PAYLOAD,2023-11-23 03:20:38,15.08840964,0.0001941,53.22,309.0307,93.6155,266.5059,0.0001089,1.445e-05,0.0,0 STARLINK-3143,1 49738U 21115Q   23327.13933829  .00001445  00000-0  10890-3 0  9991,2 49738  53.2200 309.0307 0001941  93.6155 266.5059 15.08840964110203,6917.877,95.437,541.085,538.4,0.0
49738.0,STARLINK-3143,PAYLOAD,2023-11-23 08:06:47,15.08848875,0.0001825,53.2179,308.1375,89.8073,270.3128,0.00017932,2.568e-05,0.0,0 STARLINK-3143,1 49738U 21115Q   23327.33805341  .00002568  00000-0  17932-3 0  9991,2 49738  53.2179 308.1375 0001825  89.8073 270.3128 15.08848875109128,6917.853,95.437,540.981,538.456,0.0
49738.0,STARLINK-3143,PAYLOAD,2023-11-24 03:11:26,15.08831459,0.0001789,53.2184,304.5694,95.2142,264.9054,-0.00013817,-2.486e-05,0.0,0 STARLINK-3143,1 49738U 21115Q   23328.13294636 -.00002486  00000-0 -13817-3 0  9998,2 49738  53.2184 304.5694 0001789  95.2142 264.9054 15.08831459110359,6917.906,95.438,541.009,538.534,0.0
49738.0,STARLINK-3143,PAYLOAD,2023-11-24 07:57:35,15.08834408,0.0001767,53.2184,303.6756,99.0097,261.1095,-6.0534e-05,-1.251e-05,0.0,0 STARLINK-3143,1 49738U 21115Q   23328.33166536 -.00001251  00000-0 -60534-4 0  9995,2 49738  53.2184 303.6756 0001767  99.0097 261.1095 15.08834408109275,6917.897,95.438,540.985,538.54,0.0
49738.0,STARLINK-3143,PAYLOAD,2023-11-25 03:02:13,15.08842662,0.0001682,53.2178,300.1074,100.2591,259.8591,9.8647e-05,1.282e-05,0.0,0 STARLINK-3143,1 49738U 21115Q   23329.12654634  .00001282  00000-0  98647-4 0  9992,2 49738  53.2178 300.1074 0001682 100.2591 259.8591 15.08842662110507,6917.872,95.437,540.901,538.574,0.0
